{"type": "FeatureCollection", "features": [ {"type": "Feature", "properties": {"norad_id": 30071, "name": "FENGYUN 1C DEB", "group": "fengyun-1c-debris", "lat": -22.147294275957083, "lon": 104.92560478994474, "alt_km": 721.4115820199113, "timestamp": "2025-12-27T15:27:11.464323+00:00", "meta": {"OBJECT_NAME": "FENGYUN 1C DEB", "OBJECT_ID": "1999-025PY", "EPOCH": "2025-12-27T05:55:37.383744", "MEAN_MOTION": 14.52406643, "ECCENTRICITY": 0.00379375, "INCLINATION": 98.6573, "RA_OF_ASC_NODE": 100.961, "ARG_OF_PERICENTER": 65.4994, "MEAN_ANOMALY": 358.4608, "EPHEMERIS_TYPE": 0, "CLASSIFICATION_TYPE": "U", "NORAD_CAT_ID": 30071, "ELEMENT_SET_NO": 999, "REV_AT_EPOCH": 98437, "BSTAR": 0.0025183445, "MEAN_MOTION_DOT": 0.00010323, "MEAN_MOTION_DDOT": 0}, "tle": {"line1": "1 30071U 99025PY  25361.24696046  .00010323  00000+0  25183-2 0  9999", "line2": "2 30071  98.6573 100.9610 0037937  65.4994 358.4608 14.52406643984374"}}, "geometry": {"type": "Point", "coordinates": [104.92560478994474, -22.147294275957083]}}, {"type": "Feature", "properties": {"norad_id": 30072, "name": "FENGYUN 1C DEB", "group": "fengyun-1c-debris", "lat": -70.13131061187036, "lon": -55.5062607584105, "alt_km": 732.3492218402052, "timestamp": "2025-12-27T15:27:11.464333+00:00", "meta": {"OBJECT_NAME": "FENGYUN 1C DEB", "OBJECT_ID": "1999-025PZ", "EPOCH": "2025-12-27T04:15:48.439872", "MEAN_MOTION": 14.38061827, "ECCENTRICITY": 0.00601812, "INCLINATION": 99.0758, "RA_OF_ASC_NODE": 150.2535, "ARG_OF_PERICENTER": 231.1074, "MEAN_ANOMALY": 128.4735, "EPHEMERIS_TYPE": 0, "CLASSIFICATION_TYPE": "U", "NORAD_CAT_ID": 30072, "ELEMENT_SET_NO": 999, "REV_AT_EPOCH": 97378, "BSTAR": 0.0040426377, "MEAN_MOTION_DOT": 0.00012476, "MEAN_MOTION_DDOT": 0}, "tle": {"line1": "1 30072U 99025PZ  25361.17764398  .00012476  00000+0  40426-2 0  9996", "line2": "2 30072  99.0758 150.2535 0060181 231.1074 128.4735 14.38061827973781"}}, "geometry": {"type": "Point", "coordinates": [-55.5062607584105, -70.13131061187036]}}, {"type": "Feature", "properties": {"norad_id": 30073, "name": "FENGYUN 1C DEB", "group": "fengyun-1c-debris", "lat": -32.151394055519965, "lon": 149.6943526054031, "alt_km": 801.2785864922853, "timestamp": "2025-12-27T15:27:11.464344+00:00", "meta": {"OBJECT_NAME": "FENGYUN 1C DEB", "OBJECT_ID": "1999-025QA", "EPOCH": "2025-12-26T21:47:10.743072", "MEAN_MOTION": 14.1874961, "ECCENTRICITY": 0.0052777, "INCLINATION": 99.4127, "RA_OF_ASC_NODE": 334.8984, "ARG_OF_PERICENTER": 240.3895, "MEAN_ANOMALY": 174.7479, "EPHEMERIS_TYPE": 0, "CLASSIFICATION_TYPE": "U", "NORAD_CAT_ID": 30073, "ELEMENT_SET_NO": 999, "REV_AT_EPOCH": 97126, "BSTAR": 0.0016062, "MEAN_MOTION_DOT": 3.334e-05, "MEAN_MOTION_DDOT": 0}, "tle": {"line1": "1 30073U 99025QA  25360.90776323  .00003334  00000+0  16062-2 0  9990", "line2": "2 30073  99.4127 334.8984 0052777 240.3895 174.7479 14.18749610971260"}}, "geometry": {"type": "Point", "coordinates": [149.6943526054031, -32.151394055519965]}}, {"type": "Feature", "properties": {"norad_id": 30074, "name": "FENGYUN 1C DEB", "group": "fengyun-1c-debris", "lat": 14.339019452370353, "lon": 65.81437413173707, "alt_km": 856.7069056572527, "timestamp": "2025-12-27T15:27:11.464354+00:00", "meta": {"OBJECT_NAME": "FENGYUN 1C DEB", "OBJECT_ID": "1999-025QB", "EPOCH": "2025-12-27T03:29:15.183168", "MEAN_MOTION": 14.12930618, "ECCENTRICITY": 0.00966431, "INCLINATION": 99.1282, "RA_OF_ASC_NODE": 67.6617, "ARG_OF_PERICENTER": 111.9313, "MEAN_ANOMALY": 249.2165, "EPHEMERIS_TYPE": 0, "CLASSIFICATION_TYPE": "U", "NORAD_CAT_ID": 30074, "ELEMENT_SET_NO": 999, "REV_AT_EPOCH": 96865, "BSTAR": 0.0014439598, "MEAN_MOTION_DOT": 2.766e-05, "MEAN_MOTION_DDOT": 0}, "tle": {"line1": "1 30074U 99025QB  25361.14531462  .00002766  00000+0  14440-2 0  9997", "line2": "2 30074  99.1282  67.6617 0096643 111.9313 249.2165 14.12930618968655"}}, "geometry": {"type": "Point", "coordinates": [65.81437413173707, 14.339019452370353]}}, {"type": "Feature", "properties": {"norad_id": 30075, "name": "FENGYUN 1C DEB", "group": "fengyun-1c-debris", "lat": 77.00438831464501, "lon": -82.27688998025593, "alt_km": 859.5783636342949, "timestamp": "2025-12-27T15:27:11.464364+00:00", "meta": {"OBJECT_NAME": "FENGYUN 1C DEB", "OBJECT_ID": "1999-025QC", "EPOCH": "2025-12-27T03:10:49.828224", "MEAN_MOTION": 13.92538451, "ECCENTRICITY": 0.00915213, "INCLINATION": 99.3597, "RA_OF_ASC_NODE": 51.5934, "ARG_OF_PERICENTER": 138.4085, "MEAN_ANOMALY": 279.1208, "EPHEMERIS_TYPE": 0, "CLASSIFICATION_TYPE": "U", "NORAD_CAT_ID": 30075, "ELEMENT_SET_NO": 999, "REV_AT_EPOCH": 96265, "BSTAR": 6.5334767e-05, "MEAN_MOTION_DOT": 4.2e-07, "MEAN_MOTION_DDOT": 0}, "tle": {"line1": "1 30075U 99025QC  25361.13252116  .00000042  00000+0  65335-4 0  9999", "line2": "2 30075  99.3597  51.5934 0091521 138.4085 279.1208 13.92538451962651"}}, "geometry": {"type": "Point", "coordinates": [-82.27688998025593, 77.00438831464501]}}, {"type": "Feature", "properties": {"norad_id": 30076, "name": "FENGYUN 1C DEB", "group": "fengyun-1c-debris", "lat": 3.341825712411879, "lon": -12.613002481362441, "alt_km": 897.129561203752, "timestamp": "2025-12-27T15:27:11.464374+00:00", "meta": {"OBJECT_NAME": "FENGYUN 1C DEB", "OBJECT_ID": "1999-025QD", "EPOCH": "2025-12-26T22:17:48.889248", "MEAN_MOTION": 13.76300863, "ECCENTRICITY": 0.0175703, "INCLINATION": 99.2396, "RA_OF_ASC_NODE": 347.2377, "ARG_OF_PERICENTER": 56.6199, "MEAN_ANOMALY": 8.4933, "EPHEMERIS_TYPE": 0, "CLASSIFICATION_TYPE": "U", "NORAD_CAT_ID": 30076, "ELEMENT_SET_NO": 999, "REV_AT_EPOCH": 95089, "BSTAR": 0.00037734, "MEAN_MOTION_DOT": 3.7e-06, "MEAN_MOTION_DDOT": 0}, "tle": {"line1": "1 30076U 99025QD  25360.92903807  .00000370  00000+0  37734-3 0  9991", "line2": "2 30076  99.2396 347.2377 0175703  56.6199   8.4933 13.76300863950893"}}, "geometry": {"type": "Point", "coordinates": [-12.613002481362441, 3.341825712411879]}}, {"type": "Feature", "properties": {"norad_id": 30077, "name": "FENGYUN 1C DEB", "group": "fengyun-1c-debris", "lat": 41.582066379685074, "lon": -155.30689445400685, "alt_km": 864.0276668752549, "timestamp": "2025-12-27T15:27:11.464401+00:00", "meta": {"OBJECT_NAME": "FENGYUN 1C DEB", "OBJECT_ID": "1999-025QE", "EPOCH": "2025-12-27T01:27:11.556288", "MEAN_MOTION": 14.07081311, "ECCENTRICITY": 0.00207542, "INCLINATION": 98.7574, "RA_OF_ASC_NODE": 16.2672, "ARG_OF_PERICENTER": 222.0762, "MEAN_ANOMALY": 202.6704, "EPHEMERIS_TYPE": 0, "CLASSIFICATION_TYPE": "U", "NORAD_CAT_ID": 30077, "ELEMENT_SET_NO": 999, "REV_AT_EPOCH": 97314, "BSTAR": 0.00014843151, "MEAN_MOTION_DOT": 2.06e-06, "MEAN_MOTION_DDOT": 0}, "tle": {"line1": "1 30077U 99025QE  25361.06055042  .00000206  00000+0  14843-3 0  9991", "line2": "2 30077  98.7574  16.2672 0020754 222.0762 202.6704 14.07081311973143"}}, "geometry": {"type": "Point", "coordinates": [-155.30689445400685, 41.582066379685074]}}, {"type": "Feature", "properties": {"norad_id": 30078, "name": "FENGYUN 1C DEB", "group": "fengyun-1c-debris", "lat": 10.206444723377185, "lon": -101.83680809799539, "alt_km": 801.2061691724848, "timestamp": "2025-12-27T15:27:11.464414+00:00", "meta": {"OBJECT_NAME": "FENGYUN 1C DEB", "OBJECT_ID": "1999-025QF", "EPOCH": "2025-12-27T04:47:31.982208", "MEAN_MOTION": 14.23218511, "ECCENTRICITY": 0.00535865, "INCLINATION": 98.8312, "RA_OF_ASC_NODE": 76.1137, "ARG_OF_PERICENTER": 238.5986, "MEAN_ANOMALY": 176.871, "EPHEMERIS_TYPE": 0, "CLASSIFICATION_TYPE": "U", "NORAD_CAT_ID": 30078, "ELEMENT_SET_NO": 999, "REV_AT_EPOCH": 97319, "BSTAR": 0.0015006563, "MEAN_MOTION_DOT": 3.4e-05, "MEAN_MOTION_DDOT": 0}, "tle": {"line1": "1 30078U 99025QF  25361.19967572  .00003400  00000+0  15007-2 0  9997", "line2": "2 30078  98.8312  76.1137 0053586 238.5986 176.8710 14.23218511973191"}}, "geometry": {"type": "Point", "coordinates": [-101.83680809799539, 10.206444723377185]}}, {"type": "Feature", "properties": {"norad_id": 30079, "name": "FENGYUN 1C DEB", "group": "fengyun-1c-debris", "lat": 32.739863656972126, "lon": -117.11535890695406, "alt_km": 910.0628004804503, "timestamp": "2025-12-27T15:27:11.464424+00:00", "meta": {"OBJECT_NAME": "FENGYUN 1C DEB", "OBJECT_ID": "1999-025QG", "EPOCH": "2025-12-27T01:20:40.102944", "MEAN_MOTION": 14.0080169, "ECCENTRICITY": 0.00851824, "INCLINATION": 99.0322, "RA_OF_ASC_NODE": 56.4336, "ARG_OF_PERICENTER": 258.7016, "MEAN_ANOMALY": 166.0177, "EPHEMERIS_TYPE": 0, "CLASSIFICATION_TYPE": "U", "NORAD_CAT_ID": 30079, "ELEMENT_SET_NO": 999, "REV_AT_EPOCH": 96738, "BSTAR": 0.00017748915, "MEAN_MOTION_DOT": 2.28e-06, "MEAN_MOTION_DDOT": 0}, "tle": {"line1": "1 30079U 99025QG  25361.05601971  .00000228  00000+0  17749-3 0  9992", "line2": "2 30079  99.0322  56.4336 0085182 258.7016 166.0177 14.00801690967386"}}, "geometry": {"type": "Point", "coordinates": [-117.11535890695406, 32.739863656972126]}}, {"type": "Feature", "properties": {"norad_id": 30080, "name": "FENGYUN 1C DEB", "group": "fengyun-1c-debris", "lat": 29.83408359054152, "lon": -23.342578507553657, "alt_km": 760.4342067175248, "timestamp": "2025-12-27T15:27:11.464434+00:00", "meta": {"OBJECT_NAME": "FENGYUN 1C DEB", "OBJECT_ID": "1999-025QH", "EPOCH": "2025-12-27T05:10:52.259232", "MEAN_MOTION": 14.10838354, "ECCENTRICITY": 0.01333432, "INCLINATION": 98.6999, "RA_OF_ASC_NODE": 341.2806, "ARG_OF_PERICENTER": 19.715, "MEAN_ANOMALY": 357.6845, "EPHEMERIS_TYPE": 0, "CLASSIFICATION_TYPE": "U", "NORAD_CAT_ID": 30080, "ELEMENT_SET_NO": 999, "REV_AT_EPOCH": 97442, "BSTAR": 0.00034205799, "MEAN_MOTION_DOT": 6.23e-06, "MEAN_MOTION_DDOT": 0}, "tle": {"line1": "1 30080U 99025QH  25361.21588263  .00000623  00000+0  34206-3 0  9996", "line2": "2 30080  98.6999 341.2806 0133343  19.7150 357.6845 14.10838354974428"}}, "geometry": {"type": "Point", "coordinates": [-23.342578507553657, 29.83408359054152]}}]}